start=new Date('2022-06-08T00:00:00.000Z').valueOf();
sats=[{"PERIAPSIS":"546.281","MEAN_MOTION":"15.06389175","REF_FRAME":"TEME","COUNTRY_CODE":"US","CLASSIFICATION_TYPE":"U","BSTAR":"-0.00005700000000","MEAN_ANOMALY":"302.6174","REV_AT_EPOCH":"12332","MEAN_MOTION_DOT":"-0.00001130","APOAPSIS":"548.212","TLE_LINE2":"2 45413  53.0531 170.9980 0001394  57.4949 302.6174 15.06389175123324","LAUNCH_DATE":"2020-03-18","SEMIMAJOR_AXIS":"6925.382","EPHEMERIS_TYPE":"0","INCLINATION":"53.0531","PERIOD":"95.593","NORAD_CAT_ID":"45413","DECAY_DATE":null,"CENTER_NAME":"EARTH","ARG_OF_PERICENTER":"57.4949","TLE_LINE1":"1 45413U 20019BF  22158.75023940 -.00001130  00000-0 -57000-4 0  9990","TIME_SYSTEM":"UTC","ELEMENT_SET_NO":"999","ECCENTRICITY":"0.00013940","OBJECT_ID":"2020-019BF","MEAN_MOTION_DDOT":"0.0000000000000","RCS_SIZE":"LARGE","FILE":"3485136","GP_ID":"205593659","OBJECT_TYPE":"PAYLOAD","SITE":"AFETR","OBJECT_NAME":"STARLINK-1298","RA_OF_ASC_NODE":"170.9980","MEAN_ELEMENT_THEORY":"SGP4","EPOCH":"2022-06-07T18:00:20.684160"},{"INCLINATION":"53.0550","TLE_LINE2":"2 45414  53.0550 171.0610 0001583  54.8951 305.2186 15.06394723123217","SEMIMAJOR_AXIS":"6925.365","LAUNCH_DATE":"2020-03-18","EPHEMERIS_TYPE":"0","TLE_LINE1":"1 45414U 20019BG  22158.73550372  .00000669  00000-0  63840-4 0  9996","ARG_OF_PERICENTER":"54.8951","CENTER_NAME":"EARTH","DECAY_DATE":null,"PERIOD":"95.592","NORAD_CAT_ID":"45414","REF_FRAME":"TEME","COUNTRY_CODE":"US","MEAN_MOTION":"15.06394723","PERIAPSIS":"546.133","APOAPSIS":"548.326","CLASSIFICATION_TYPE":"U","BSTAR":"0.00006384000000","MEAN_ANOMALY":"305.2186","MEAN_MOTION_DOT":"0.00000669","REV_AT_EPOCH":"12321","GP_ID":"205592414","FILE":"3485136","EPOCH":"2022-06-07T17:39:07.521408","RA_OF_ASC_NODE":"171.0610","MEAN_ELEMENT_THEORY":"SGP4","OBJECT_TYPE":"PAYLOAD","SITE":"AFETR","OBJECT_NAME":"STARLINK-1309","ECCENTRICITY":"0.00015830","ELEMENT_SET_NO":"999","TIME_SYSTEM":"UTC","RCS_SIZE":"LARGE","MEAN_MOTION_DDOT":"0.0000000000000","OBJECT_ID":"2020-019BG"},{"PERIAPSIS":"546.100","REF_FRAME":"TEME","COUNTRY_CODE":"US","MEAN_MOTION":"15.06395127","APOAPSIS":"548.357","MEAN_ANOMALY":"285.8870","BSTAR":"0.00009733900000","CLASSIFICATION_TYPE":"U","MEAN_MOTION_DOT":"0.00001168","REV_AT_EPOCH":"12325","TLE_LINE2":"2 45415  53.0546 170.9550 0001629  74.2298 285.8870 15.06395127123251","LAUNCH_DATE":"2020-03-18","SEMIMAJOR_AXIS":"6925.363","EPHEMERIS_TYPE":"0","INCLINATION":"53.0546","DECAY_DATE":null,"PERIOD":"95.592","NORAD_CAT_ID":"45415","TLE_LINE1":"1 45415U 20019BH  22158.76130609  .00001168  00000-0  97339-4 0  9992","ARG_OF_PERICENTER":"74.2298","CENTER_NAME":"EARTH","TIME_SYSTEM":"UTC","ECCENTRICITY":"0.00016290","ELEMENT_SET_NO":"999","MEAN_MOTION_DDOT":"0.0000000000000","OBJECT_ID":"2020-019BH","RCS_SIZE":"LARGE","FILE":"3485136","GP_ID":"205592664","OBJECT_TYPE":"PAYLOAD","SITE":"AFETR","OBJECT_NAME":"STARLINK-1316","EPOCH":"2022-06-07T18:16:16.846176","RA_OF_ASC_NODE":"170.9550","MEAN_ELEMENT_THEORY":"SGP4"},{"ECCENTRICITY":"0.00014820","ELEMENT_SET_NO":"999","TIME_SYSTEM":"UTC","RCS_SIZE":"LARGE","OBJECT_ID":"2020-019BJ","MEAN_MOTION_DDOT":"0.0000000000000","GP_ID":"205593414","FILE":"3485136","MEAN_ELEMENT_THEORY":"SGP4","RA_OF_ASC_NODE":"171.1144","EPOCH":"2022-06-07T17:28:30.213408","OBJECT_NAME":"STARLINK-1318","SITE":"AFETR","OBJECT_TYPE":"PAYLOAD","MEAN_MOTION":"15.06394146","COUNTRY_CODE":"US","REF_FRAME":"TEME","PERIAPSIS":"546.205","REV_AT_EPOCH":"12323","MEAN_MOTION_DOT":"-0.00001011","BSTAR":"-0.00004897900000","CLASSIFICATION_TYPE":"U","MEAN_ANOMALY":"293.5295","APOAPSIS":"548.258","INCLINATION":"53.0525","LAUNCH_DATE":"2020-03-18","SEMIMAJOR_AXIS":"6925.366","EPHEMERIS_TYPE":"0","TLE_LINE2":"2 45416  53.0525 171.1144 0001482  66.5850 293.5295 15.06394146123231","CENTER_NAME":"EARTH","ARG_OF_PERICENTER":"66.5850","TLE_LINE1":"1 45416U 20019BJ  22158.72812747 -.00001011  00000-0 -48979-4 0  9994","NORAD_CAT_ID":"45416","PERIOD":"95.593","DECAY_DATE":null},{"ARG_OF_PERICENTER":"75.4395","TLE_LINE1":"1 45417U 20019BK  22158.53369104 -.00000784  00000-0 -33776-4 0  9993","CENTER_NAME":"EARTH","DECAY_DATE":null,"PERIOD":"95.592","NORAD_CAT_ID":"45417","INCLINATION":"53.0527","TLE_LINE2":"2 45417  53.0527 201.9727 0001502  75.4395 284.6760 15.06396253123069","SEMIMAJOR_AXIS":"6925.360","LAUNCH_DATE":"2020-03-18","EPHEMERIS_TYPE":"0","APOAPSIS":"548.265","BSTAR":"-0.00003377600000","MEAN_ANOMALY":"284.6760","CLASSIFICATION_TYPE":"U","MEAN_MOTION_DOT":"-0.00000784","REV_AT_EPOCH":"12306","REF_FRAME":"TEME","COUNTRY_CODE":"US","MEAN_MOTION":"15.06396253","PERIAPSIS":"546.185","EPOCH":"2022-06-07T12:48:30.905856","RA_OF_ASC_NODE":"201.9727","MEAN_ELEMENT_THEORY":"SGP4","OBJECT_TYPE":"PAYLOAD","SITE":"AFETR","OBJECT_NAME":"STARLINK-1286","GP_ID":"205538082","FILE":"3484741","RCS_SIZE":"LARGE","MEAN_MOTION_DDOT":"0.0000000000000","OBJECT_ID":"2020-019BK","ELEMENT_SET_NO":"999","ECCENTRICITY":"0.00015020","TIME_SYSTEM":"UTC"},{"NORAD_CAT_ID":"45418","PERIOD":"95.628","DECAY_DATE":null,"CENTER_NAME":"EARTH","ARG_OF_PERICENTER":"11.6555","TLE_LINE1":"1 45418U 20019BL  22158.61262779  .00008132  00000-0  57266-3 0  9995","SEMIMAJOR_AXIS":"6927.071","LAUNCH_DATE":"2020-03-18","EPHEMERIS_TYPE":"0","TLE_LINE2":"2 45418  52.9983 223.2213 0001380  11.6555 348.4464 15.05838052122465","INCLINATION":"52.9983","MEAN_MOTION_DOT":"0.00008132","REV_AT_EPOCH":"12246","MEAN_ANOMALY":"348.4464","BSTAR":"0.00057266000000","CLASSIFICATION_TYPE":"U","APOAPSIS":"549.892","PERIAPSIS":"547.980","MEAN_MOTION":"15.05838052","COUNTRY_CODE":"US","REF_FRAME":"TEME","OBJECT_NAME":"STARLINK-1299","SITE":"AFETR","OBJECT_TYPE":"PAYLOAD","MEAN_ELEMENT_THEORY":"SGP4","RA_OF_ASC_NODE":"223.2213","EPOCH":"2022-06-07T14:42:11.041056","FILE":"3485136","GP_ID":"205591914","OBJECT_ID":"2020-019BL","MEAN_MOTION_DDOT":"0.0000000000000","RCS_SIZE":"LARGE","TIME_SYSTEM":"UTC","ELEMENT_SET_NO":"999","ECCENTRICITY":"0.00013800"},{"ARG_OF_PERICENTER":"68.4882","TLE_LINE1":"1 45419U 20019BM  22158.46365651 -.00000554  00000-0 -18311-4 0  9993","CENTER_NAME":"EARTH","DECAY_DATE":null,"NORAD_CAT_ID":"45419","PERIOD":"95.592","INCLINATION":"53.0538","LAUNCH_DATE":"2020-03-18","EPHEMERIS_TYPE":"0","SEMIMAJOR_AXIS":"6925.354","TLE_LINE2":"2 45419  53.0538 202.3003 0001350  68.4882 291.6250 15.06398302122797","APOAPSIS":"548.154","REV_AT_EPOCH":"12279","MEAN_MOTION_DOT":"-0.00000554","CLASSIFICATION_TYPE":"U","BSTAR":"-0.00001831100000","MEAN_ANOMALY":"291.6250","COUNTRY_CODE":"US","REF_FRAME":"TEME","MEAN_MOTION":"15.06398302","PERIAPSIS":"546.284","EPOCH":"2022-06-07T11:07:39.922464","MEAN_ELEMENT_THEORY":"SGP4","RA_OF_ASC_NODE":"202.3003","OBJECT_NAME":"STARLINK-1308","SITE":"AFETR","OBJECT_TYPE":"PAYLOAD","GP_ID":"205571882","FILE":"3485062","RCS_SIZE":"LARGE","MEAN_MOTION_DDOT":"0.0000000000000","OBJECT_ID":"2020-019BM","ELEMENT_SET_NO":"999","ECCENTRICITY":"0.00013500","TIME_SYSTEM":"UTC"},{"EPOCH":"2022-06-07T10:22:32.670912","MEAN_ELEMENT_THEORY":"SGP4","RA_OF_ASC_NODE":"142.4370","OBJECT_NAME":"STARLINK-1329","SITE":"AFETR","OBJECT_TYPE":"PAYLOAD","GP_ID":"205570101","FILE":"3485008","RCS_SIZE":"LARGE","MEAN_MOTION_DDOT":"0.0000000000000","OBJECT_ID":"2020-025A","ECCENTRICITY":"0.00017270","ELEMENT_SET_NO":"999","TIME_SYSTEM":"UTC","ARG_OF_PERICENTER":"61.0963","TLE_LINE1":"1 45531U 20025A   22158.43232258 -.00000560  00000-0 -18717-4 0  9995","CENTER_NAME":"EARTH","DECAY_DATE":null,"NORAD_CAT_ID":"45531","PERIOD":"95.592","INCLINATION":"53.0541","LAUNCH_DATE":"2020-04-22","SEMIMAJOR_AXIS":"6925.358","EPHEMERIS_TYPE":"0","TLE_LINE2":"2 45531  53.0541 142.4370 0001727  61.0963 299.0199 15.06396787117810","APOAPSIS":"548.419","MEAN_MOTION_DOT":"-0.00000560","REV_AT_EPOCH":"11781","BSTAR":"-0.00001871700000","CLASSIFICATION_TYPE":"U","MEAN_ANOMALY":"299.0199","COUNTRY_CODE":"US","REF_FRAME":"TEME","MEAN_MOTION":"15.06396787","PERIAPSIS":"546.027"},{"TLE_LINE1":"1 45532U 20025B   22158.64242353 -.00000807  00000-0 -35276-4 0  9999","ARG_OF_PERICENTER":"60.9717","CENTER_NAME":"EARTH","DECAY_DATE":null,"NORAD_CAT_ID":"45532","PERIOD":"95.592","INCLINATION":"53.0543","LAUNCH_DATE":"2020-04-22","EPHEMERIS_TYPE":"0","SEMIMAJOR_AXIS":"6925.351","TLE_LINE2":"2 45532  53.0543 141.4923 0001914  60.9717 299.1464 15.06399127118446","APOAPSIS":"548.542","MEAN_MOTION_DOT":"-0.00000807","REV_AT_EPOCH":"11844","BSTAR":"-0.00003527600000","MEAN_ANOMALY":"299.1464","CLASSIFICATION_TYPE":"U","COUNTRY_CODE":"US","REF_FRAME":"TEME","MEAN_MOTION":"15.06399127","PERIAPSIS":"545.891","EPOCH":"2022-06-07T15:25:05.392992","MEAN_ELEMENT_THEORY":"SGP4","RA_OF_ASC_NODE":"141.4923","OBJECT_NAME":"STARLINK-1338","OBJECT_TYPE":"PAYLOAD","SITE":"AFETR","GP_ID":"205592676","FILE":"3485136","RCS_SIZE":"LARGE","MEAN_MOTION_DDOT":"0.0000000000000","OBJECT_ID":"2020-025B","ELEMENT_SET_NO":"999","ECCENTRICITY":"0.00019140","TIME_SYSTEM":"UTC"},{"ELEMENT_SET_NO":"999","ECCENTRICITY":"0.00102290","TIME_SYSTEM":"UTC","RCS_SIZE":"LARGE","OBJECT_ID":"2020-025C","MEAN_MOTION_DDOT":"0.0000000000000","GP_ID":"205568570","FILE":"3484947","RA_OF_ASC_NODE":"98.3649","MEAN_ELEMENT_THEORY":"SGP4","EPOCH":"2022-06-07T13:08:50.581824","OBJECT_TYPE":"PAYLOAD","SITE":"AFETR","OBJECT_NAME":"STARLINK-1339","MEAN_MOTION":"15.54884609","REF_FRAME":"TEME","COUNTRY_CODE":"US","PERIAPSIS":"395.554","BSTAR":"0.00144510000000","MEAN_ANOMALY":"293.2553","CLASSIFICATION_TYPE":"U","REV_AT_EPOCH":"11844","MEAN_MOTION_DOT":"0.00099167","APOAPSIS":"409.426","INCLINATION":"53.0412","TLE_LINE2":"2 45533  53.0412  98.3649 0010229  66.9534 293.2553 15.54884609118440","LAUNCH_DATE":"2020-04-22","EPHEMERIS_TYPE":"0","SEMIMAJOR_AXIS":"6780.625","CENTER_NAME":"EARTH","TLE_LINE1":"1 45533U 20025C   22158.54780766  .00099167  00000-0  14451-2 0  9999","ARG_OF_PERICENTER":"66.9534","PERIOD":"92.611","NORAD_CAT_ID":"45533","DECAY_DATE":null}];
